{
 "generated_at": "2026-07-13T08:17:10Z",
 "sources": [
  {
   "name": "CelesTrak",
   "url": "https://celestrak.org/NORAD/elements/",
   "license": "frei verfügbar; Attribution. Ursprünglich USSPACECOM/Space-Track."
  },
  {
   "name": "GCAT (J. McDowell, planet4589.org)",
   "url": "https://planet4589.org/space/gcat/",
   "license": "CC-BY 4.0"
  }
 ],
 "satellites": [
  {
   "norad": 68485,
   "name": "CAPELLA-20 (ACADIA-10)",
   "intl": "2026-067BX",
   "group": "sar",
   "gcat": {
    "class": "B",
    "category": "IMG-R",
    "owner": "CAPSP",
    "state": "US"
   },
   "omm": {
    "OBJECT_NAME": "CAPELLA-20 (ACADIA-10)",
    "OBJECT_ID": "2026-067BX",
    "EPOCH": "2026-07-12T18:48:27.319392",
    "MEAN_MOTION": 14.91670391,
    "ECCENTRICITY": 0.0000844,
    "INCLINATION": 97.7586,
    "RA_OF_ASC_NODE": 151.6711,
    "ARG_OF_PERICENTER": 145.2453,
    "MEAN_ANOMALY": 214.8821,
    "EPHEMERIS_TYPE": 0,
    "CLASSIFICATION_TYPE": "U",
    "NORAD_CAT_ID": 68485,
    "ELEMENT_SET_NO": 999,
    "REV_AT_EPOCH": 1554,
    "BSTAR": 0.00036022,
    "MEAN_MOTION_DOT": 0.00003566,
    "MEAN_MOTION_DDOT": 0
   }
  },
  {
   "norad": 40718,
   "name": "CARBONITE 1 (CBNT-1)",
   "intl": "2015-032D",
   "group": "resource",
   "gcat": {
    "class": "B",
    "category": "IMG",
    "owner": "SSTLA",
    "state": "UK"
   },
   "omm": {
    "OBJECT_NAME": "CARBONITE 1 (CBNT-1)",
    "OBJECT_ID": "2015-032D",
    "EPOCH": "2026-07-12T19:28:08.301216",
    "MEAN_MOTION": 14.8366459,
    "ECCENTRICITY": 0.001362,
    "INCLINATION": 97.6518,
    "RA_OF_ASC_NODE": 10.8077,
    "ARG_OF_PERICENTER": 205.1882,
    "MEAN_ANOMALY": 154.867,
    "EPHEMERIS_TYPE": 0,
    "CLASSIFICATION_TYPE": "U",
    "NORAD_CAT_ID": 40718,
    "ELEMENT_SET_NO": 999,
    "REV_AT_EPOCH": 59314,
    "BSTAR": 0.00012065,
    "MEAN_MOTION_DOT": 0.00000947,
    "MEAN_MOTION_DDOT": 0
   }
  },
  {
   "norad": 67397,
   "name": "CARBSAR",
   "intl": "2026-004AL",
   "group": "sar",
   "gcat": {
    "class": "B",
    "category": "IMG-R",
    "owner": "SSTL",
    "state": "UK"
   },
   "omm": {
    "OBJECT_NAME": "CARBSAR",
    "OBJECT_ID": "2026-004AL",
    "EPOCH": "2026-07-12T17:21:32.737248",
    "MEAN_MOTION": 15.19886583,
    "ECCENTRICITY": 0.0003928,
    "INCLINATION": 97.4542,
    "RA_OF_ASC_NODE": 192.583,
    "ARG_OF_PERICENTER": 233.3716,
    "MEAN_ANOMALY": 126.7158,
    "EPHEMERIS_TYPE": 0,
    "CLASSIFICATION_TYPE": "U",
    "NORAD_CAT_ID": 67397,
    "ELEMENT_SET_NO": 999,
    "REV_AT_EPOCH": 2764,
    "BSTAR": 0.00017069,
    "MEAN_MOTION_DOT": 0.00003596,
    "MEAN_MOTION_DDOT": 0
   }
  },
  {
   "norad": 32783,
   "name": "CARTOSAT-2A",
   "intl": "2008-021A",
   "group": "resource",
   "gcat": {
    "class": "D",
    "category": "IMG",
    "owner": "ISRO",
    "state": "IN"
   },
   "omm": {
    "OBJECT_NAME": "CARTOSAT-2A",
    "OBJECT_ID": "2008-021A",
    "EPOCH": "2026-07-12T19:38:30.878880",
    "MEAN_MOTION": 14.79273393,
    "ECCENTRICITY": 0.0012688,
    "INCLINATION": 97.7627,
    "RA_OF_ASC_NODE": 241.6504,
    "ARG_OF_PERICENTER": 34.3719,
    "MEAN_ANOMALY": 325.8311,
    "EPHEMERIS_TYPE": 0,
    "CLASSIFICATION_TYPE": "U",
    "NORAD_CAT_ID": 32783,
    "ELEMENT_SET_NO": 999,
    "REV_AT_EPOCH": 98259,
    "BSTAR": 0.000023519,
    "MEAN_MOTION_DOT": 0.00000125,
    "MEAN_MOTION_DDOT": 0
   }
  },
  {
   "norad": 36795,
   "name": "CARTOSAT-2B",
   "intl": "2010-035A",
   "group": "resource",
   "gcat": {
    "class": "D",
    "category": "IMG",
    "owner": "ISRO",
    "state": "IN"
   },
   "omm": {
    "OBJECT_NAME": "CARTOSAT-2B",
    "OBJECT_ID": "2010-035A",
    "EPOCH": "2026-07-12T20:26:17.674080",
    "MEAN_MOTION": 14.78616337,
    "ECCENTRICITY": 0.0012573,
    "INCLINATION": 97.9947,
    "RA_OF_ASC_NODE": 244.235,
    "ARG_OF_PERICENTER": 105.9355,
    "MEAN_ANOMALY": 254.3242,
    "EPHEMERIS_TYPE": 0,
    "CLASSIFICATION_TYPE": "U",
    "NORAD_CAT_ID": 36795,
    "ELEMENT_SET_NO": 999,
    "REV_AT_EPOCH": 86364,
    "BSTAR": 0.000078945,
    "MEAN_MOTION_DOT": 0.00000526,
    "MEAN_MOTION_DDOT": 0
   }
  },
  {
   "norad": 41599,
   "name": "CARTOSAT-2C",
   "intl": "2016-040A",
   "group": "resource",
   "gcat": {
    "class": "D",
    "category": "IMG",
    "owner": "ISRO",
    "state": "IN"
   },
   "omm": {
    "OBJECT_NAME": "CARTOSAT-2C",
    "OBJECT_ID": "2016-040A",
    "EPOCH": "2026-07-12T19:31:30.739008",
    "MEAN_MOTION": 15.19250907,
    "ECCENTRICITY": 0.0009783,
    "INCLINATION": 97.4482,
    "RA_OF_ASC_NODE": 253.4365,
    "ARG_OF_PERICENTER": 52.904,
    "MEAN_ANOMALY": 307.3087,
    "EPHEMERIS_TYPE": 0,
    "CLASSIFICATION_TYPE": "U",
    "NORAD_CAT_ID": 41599,
    "ELEMENT_SET_NO": 999,
    "REV_AT_EPOCH": 55760,
    "BSTAR": 0.000053695,
    "MEAN_MOTION_DOT": 0.00001064,
    "MEAN_MOTION_DDOT": 0
   }
  },
  {
   "norad": 41948,
   "name": "CARTOSAT-2D",
   "intl": "2017-008A",
   "group": "resource",
   "gcat": {
    "class": "D",
    "category": "IMG",
    "owner": "ISRO",
    "state": "IN"
   },
   "omm": {
    "OBJECT_NAME": "CARTOSAT-2D",
    "OBJECT_ID": "2017-008A",
    "EPOCH": "2026-07-12T20:17:17.408832",
    "MEAN_MOTION": 15.19270547,
    "ECCENTRICITY": 0.0005799,
    "INCLINATION": 97.4099,
    "RA_OF_ASC_NODE": 252.6699,
    "ARG_OF_PERICENTER": 145.4996,
    "MEAN_ANOMALY": 214.6616,
    "EPHEMERIS_TYPE": 0,
    "CLASSIFICATION_TYPE": "U",
    "NORAD_CAT_ID": 41948,
    "ELEMENT_SET_NO": 999,
    "REV_AT_EPOCH": 52147,
    "BSTAR": 0.000080065,
    "MEAN_MOTION_DOT": 0.00001621,
    "MEAN_MOTION_DDOT": 0
   }
  },
  {
   "norad": 42767,
   "name": "CARTOSAT-2E",
   "intl": "2017-036C",
   "group": "resource",
   "gcat": {
    "class": "D",
    "category": "IMG",
    "owner": "ISRO",
    "state": "IN"
   },
   "omm": {
    "OBJECT_NAME": "CARTOSAT-2E",
    "OBJECT_ID": "2017-036C",
    "EPOCH": "2026-07-12T20:42:48.579264",
    "MEAN_MOTION": 15.19239013,
    "ECCENTRICITY": 0.0003011,
    "INCLINATION": 97.4269,
    "RA_OF_ASC_NODE": 253.2401,
    "ARG_OF_PERICENTER": 195.6086,
    "MEAN_ANOMALY": 164.5056,
    "EPHEMERIS_TYPE": 0,
    "CLASSIFICATION_TYPE": "U",
    "NORAD_CAT_ID": 42767,
    "ELEMENT_SET_NO": 999,
    "REV_AT_EPOCH": 50204,
    "BSTAR": 0.0000224,
    "MEAN_MOTION_DOT": 0.00000405,
    "MEAN_MOTION_DDOT": 0
   }
  },
  {
   "norad": 43111,
   "name": "CARTOSAT-2F",
   "intl": "2018-004A",
   "group": "resource",
   "gcat": {
    "class": "D",
    "category": "IMG",
    "owner": "ISRO",
    "state": "IN"
   },
   "omm": {
    "OBJECT_NAME": "CARTOSAT-2F",
    "OBJECT_ID": "2018-004A",
    "EPOCH": "2026-07-12T21:29:43.093824",
    "MEAN_MOTION": 15.19257456,
    "ECCENTRICITY": 0.0002542,
    "INCLINATION": 97.4784,
    "RA_OF_ASC_NODE": 253.2769,
    "ARG_OF_PERICENTER": 140.9577,
    "MEAN_ANOMALY": 219.1842,
    "EPHEMERIS_TYPE": 0,
    "CLASSIFICATION_TYPE": "U",
    "NORAD_CAT_ID": 43111,
    "ELEMENT_SET_NO": 999,
    "REV_AT_EPOCH": 47123,
    "BSTAR": 0.000065102,
    "MEAN_MOTION_DOT": 0.00001304,
    "MEAN_MOTION_DDOT": 0
   }
  },
  {
   "norad": 44804,
   "name": "CARTOSAT-3",
   "intl": "2019-081A",
   "group": "resource",
   "gcat": {
    "class": "D",
    "category": "IMG",
    "owner": "ISRO",
    "state": "IN"
   },
   "omm": {
    "OBJECT_NAME": "CARTOSAT-3",
    "OBJECT_ID": "2019-081A",
    "EPOCH": "2026-07-12T20:15:18.320256",
    "MEAN_MOTION": 15.19311961,
    "ECCENTRICITY": 0.0013222,
    "INCLINATION": 97.4299,
    "RA_OF_ASC_NODE": 255.2961,
    "ARG_OF_PERICENTER": 68.5429,
    "MEAN_ANOMALY": 291.7214,
    "EPHEMERIS_TYPE": 0,
    "CLASSIFICATION_TYPE": "U",
    "NORAD_CAT_ID": 44804,
    "ELEMENT_SET_NO": 999,
    "REV_AT_EPOCH": 36736,
    "BSTAR": 0.00009363,
    "MEAN_MOTION_DOT": 0.00001912,
    "MEAN_MOTION_DDOT": 0
   }
  }
 ]
}
